CELESTIS-02             
1 25160U 98007D   22326.44433847 -.00000019  00000+0  49358-4 0  9993
2 25160 107.9829 224.9151 0063052 201.4887 251.7727 14.21665038285532
CELESTIS-03             
1 26034U 99070C   22326.41681957  .00017875  00000+0  71503-3 0  9992
2 26034  98.3042 348.7076 0007490 320.3162  39.7524 15.25141798245100
